[{"OBJECT_NAME":"STARLINK-4283","OBJECT_ID":"2022-076AG","EPOCH":"2026-03-09T10:23:06.250272","MEAN_MOTION":15.08838531,"ECCENTRICITY":0.00011115,"INCLINATION":53.2179,"RA_OF_ASC_NODE":85.2732,"ARG_OF_PERICENTER":91.6453,"MEAN_ANOMALY":268.4667,"EPHEMERIS_TYPE":0,"CLASSIFICATION_TYPE":"U","NORAD_CAT_ID":53016,"ELEMENT_SET_NO":999,"REV_AT_EPOCH":20294,"BSTAR":-3.9622039e-5,"MEAN_MOTION_DOT":-9.18e-6,"MEAN_MOTION_DDOT":0},{"OBJECT_NAME":"ELECTRON KICK STAGE R\/B","OBJECT_ID":"2023-035A","EPOCH":"2026-03-09T00:22:03.988416","MEAN_MOTION":15.09409521,"ECCENTRICITY":0.00017263,"INCLINATION":44.1756,"RA_OF_ASC_NODE":311.3301,"ARG_OF_PERICENTER":9.8979,"MEAN_ANOMALY":350.1918,"EPHEMERIS_TYPE":0,"CLASSIFICATION_TYPE":"U","NORAD_CAT_ID":55908,"ELEMENT_SET_NO":999,"REV_AT_EPOCH":16322,"BSTAR":0.00066616987,"MEAN_MOTION_DOT":0.00010608,"MEAN_MOTION_DDOT":0}]
